SL-3 R/B                
1 19046U 88032B   19077.50798737  .00000829  00000-0  65980-4 0  9992
2 19046  97.4479 112.6883 0036736 320.9443  38.9131 15.02547448668635
SL-16 R/B               
1 19120U 88039B   19076.96072924 -.00000029  00000-0  93687-5 0  9993
2 19120  71.0133  55.2073 0024220 286.7095  73.1372 14.19192729596748
COSMOS 1953             
1 19210U 88050A   19076.74400048  .00000021  00000-0 -57153-6 0  9995
2 19210  82.5158 134.0338 0011638 236.2328 123.7791 15.05726659652785
SL-8 R/B                
1 19257U 88053B   19077.48152841  .00000076  00000-0  34029-4 0  9990
2 19257  74.0475 121.1994 0021227 216.5522 245.5866 14.37427728610623
COSMOS 1975             
1 19573U 88093A   19076.58686813  .00000386  00000-0  25399-4 0  9990
2 19573  82.5175  87.5850 0012840 285.1824  74.7982 15.04642113655799
SL-14 R/B               
1 19574U 88093B   19076.93239727  .00000088  00000-0  77108-5 0  9993
2 19574  82.5290 267.8445 0021945 166.7407 306.2022 14.83291572623044
SL-16 R/B               
1 19650U 88102B   19077.14578554 -.00000035  00000-0  64474-5 0  9992
2 19650  70.9977 111.5261 0016511 287.3399  72.5918 14.15774804566431
INTERCOSMOS 24          
1 20261U 89080A   19076.73685895  .00000176  00000-0  43565-4 0  9991
2 20261  82.6042 316.4620 1203800  64.0155 307.9885 12.56054307346536
SL-14 R/B               
1 20262U 89080C   19077.31085082 -.00000011  00000-0 -49531-5 0  9999
2 20262  82.5998   6.7318 1236007 239.4087 107.9434 12.48913260341497
DELTA 1 R/B             
1 20323U 89089B   19076.65518148  .00000023  00000-0  15267-4 0  9995
2 20323  97.0782 291.6792 0070541 231.6505 127.8339 14.48293101547136
DELTA 2 R/B(1)          
1 20453U 90008B   19076.45687154  .00000830  00000-0  50465-4 0  9999
2 20453  35.6243  75.2723 0282945  84.0675 279.2209 14.84773719543076
COSMOS 2058             
1 20465U 90010A   19077.19844593  .00000234  00000-0  17623-4 0  9996
2 20465  82.4924 353.2877 0014204 305.9728  54.0177 14.97843572580982
SL-14 R/B               
1 20466U 90010B   19076.71213385  .00000082  00000-0  73979-5 0  9991
2 20466  82.5029 135.1429 0021558  44.5048 315.7892 14.81349311550962
SL-14 R/B               
1 20511U 90018B   19077.15761719  .00000088  00000-0  85919-5 0  9991
2 20511  82.5203  79.0513 0017625 172.6424 234.6925 14.80006254566573
HST                     
1 20580U 90037B   19076.89094907  .00000455  00000-0  16786-4 0  9999
2 20580  28.4692 105.5623 0002575 200.8606 163.2031 15.09188722386850
SL-16 R/B               
1 20625U 90046B   19076.86977890  .00000285  00000-0  17276-3 0  9992
2 20625  70.9971 248.6379 0015756 222.5948 137.3953 14.14639408488152
COSMOS 2084             
1 20663U 90055A   19077.50367876  .00000071  00000-0  24882-4 0  9998
2 20663  62.7925 253.7970 0089611 156.1978 204.3300 14.91952119555183
SL-6 R/B(2)             
1 20666U 90055D   19076.76426804 -.00000008  00000-0  17480-4 0  9992
2 20666  62.7861 173.6764 0055627 183.9407 176.1257 14.92223773556996
SL-8 R/B                
1 20775U 90078B   19076.90783310  .00004169  00000-0  20419-3 0  9998
2 20775  82.9249 243.5329 0579088 170.6206 190.6391 14.33034538440184
SL-8 R/B                
1 21088U 91006B   19076.95349559  .00000128  00000-0  11435-3 0  9995
2 21088  82.9386 265.3548 0021952 335.1547 134.2654 13.77113468413247
OKEAN-3                 
1 21397U 91039A   19077.52089528  .00000257  00000-0  22381-4 0  9991
2 21397  82.5195 250.9598 0016407 257.5541 102.3843 14.92776096505157
COSMOS 2151             
1 21422U 91042A   19076.89339318  .00000162  00000-0  13462-4 0  9993
2 21422  82.5035 358.5442 0013341 327.2067  32.8324 14.92029270482659
SL-14 R/B               
1 21423U 91042B   19076.94958994  .00000057  00000-0  45842-5 0  9998
2 21423  82.4910  84.4826 0016617 322.2383  37.7662 14.79757101476004
ERS-1                   
1 21574U 91050A   19076.83100459  .00000031  00000-0  24814-4 0  9994
2 21574  98.5398  26.6898 0032317 208.1555 151.7886 14.37685247449341
ARIANE 40 R/B           
1 21610U 91050F   19076.79395785 -.00000003  00000-0  12815-4 0  9996
2 21610  98.5187 144.1523 0003370 171.8535 296.3857 14.40864825452073
INTERCOSMOS 25          
1 21819U 91086A   19076.95781844 -.00000159  00000-0 -37631-4 0  9995
2 21819  82.5886  40.1467 1518456 166.7679 197.8400 12.04955239189180
SL-14 R/B               
1 21820U 91086B   19077.18382968  .00000202  00000-0  35763-4 0  9998
2 21820  82.5558 101.5274 1576472  20.0151 345.6223 11.93436593183000
SL-8 R/B                
1 21876U 92008B   19076.87893187  .00000036  00000-0  21466-4 0  9999
2 21876  82.9309   2.5112 0035968  52.5650  10.0737 13.75637075358965
SL-8 R/B                
1 21938U 92020B   19076.92411722  .00000149  00000-0  13942-3 0  9993
2 21938  82.9276 246.2398 0028648 207.9243 260.6706 13.75272381350787
SL-16 R/B               
1 22220U 92076B   19077.45018677 -.00000103  00000-0 -27742-4 0  9996
2 22220  70.9991 153.6007 0012227   8.5546  70.1121 14.16442766361293
SL-16 R/B               
1 22285U 92093B   19077.07359422 -.00000280  00000-0 -11977-3 0  9998
2 22285  71.0217 312.0374 0006365 246.2148 113.8307 14.15029969352915
COSMOS 2228             
1 22286U 92094A   19076.65862269  .00000208  00000-0  19849-4 0  9996
2 22286  82.5196 131.8653 0021873 157.7475 202.4697 14.88023482396364
SL-16 R/B               
1 22566U 93016B   19076.65132436  .00000121  00000-0  87058-4 0  9999
2 22566  71.0075 166.7288 0012395 246.2334 113.7489 14.14953826341582
COSMOS 2242             
1 22626U 93024A   19076.79442195  .00000159  00000-0  14573-4 0  9999
2 22626  82.5240 159.6711 0019723 156.7343 203.4772 14.87883433401102
SL-16 R/B               
1 22803U 93059B   19076.90145414  .00000038  00000-0  42662-4 0  9997
2 22803  70.9927 343.4928 0015675 138.9117 221.3191 14.16807296318496
ARIANE 40 R/B           
1 22830U 93061H   19076.95148017  .00000060  00000-0  40085-4 0  9999
2 22830  98.8274 115.2211 0010337 216.6318 143.4158 14.31430845329372
COSMOS 2278             
1 23087U 94023A   19077.18509732  .00000228  00000-0  14536-3 0  9991
2 23087  71.0509 103.4171 0010083 309.8002  50.2232 14.13777588284813
SL-16 R/B               
1 23088U 94023B   19076.91815318 -.00000262  00000-0 -11141-3 0  9991
2 23088  71.0025  21.4426 0005117 236.0948 123.9688 14.14676027285609
SL-16 R/B               
1 23343U 94074B   19076.76764837  .00000027  00000-0  11235-4 0  9995
2 23343  98.0655 126.9355 0007011 172.1441 303.0342 14.76768710311074
SL-16 R/B               
1 23405U 94077B   19076.89237486  .00000185  00000-0  11969-3 0  9994
2 23405  70.9838 312.5168 0000773  22.4459 337.6697 14.15209991255879
ERS-2                   
1 23560U 95021A   19076.82982168  .00001232  00000-0  57195-4 0  9999
2 23560  98.5031 164.5695 0002309 302.9594  57.1417 15.22361484272503
ARIANE 40+ R/B          
1 23561U 95021B   19076.94120853  .00000041  00000-0  28780-4 0  9993
2 23561  98.7758 102.6910 0007326 161.2111 261.4919 14.37912104252826
SL-16 R/B               
1 23705U 95058B   19077.17803870  .00000184  00000-0  11906-3 0  9995
2 23705  71.0197 128.3769 0010983  36.4588 323.7280 14.15123290207580
SL-16 R/B               
1 24298U 96051B   19077.44364610 -.00000030  00000-0  10017-4 0  9995
2 24298  70.8253 154.2782 0017659 302.1505  57.7901 14.12391581162086
ORBVIEW 2 (SEASTAR)     
1 24883U 97037A   19077.22387235  .00000054  00000-0  35344-4 0  9999
2 24883  98.5743 188.7588 0002753  41.7550 318.3844 14.33494379143463
SL-16 R/B               
1 25400U 98043G   19076.84248136 -.00000036  00000-0  29942-5 0  9995
2 25400  98.5646  17.3790 0009065 225.3661 134.6780 14.25438359 76054
SL-16 R/B               
1 25407U 98045B   19076.57929172  .00000057  00000-0  53232-4 0  9990
2 25407  71.0107 139.8511 0009520 303.8785  56.1431 14.15782775 66542
ISS (ZARYA)             
1 25544U 98067A   19077.54523375  .00002037  00000-0  39742-4 0  9999
2 25544  51.6416  91.8453 0003889 114.4645  28.5746 15.52822916161177
SL-8 R/B                
1 25723U 99022C   19076.94686121  .00011606  00000-0  12594-3 0  9999
2 25723  48.4150 336.5785 0007924 253.9862 106.0214 15.63865782105840
CZ-4B R/B               
1 25732U 99025C   19076.91796167 -.00000027  00000-0  89907-5 0  9991
2 25732  98.9839  96.4176 0038357  74.2549 348.5324 14.17660714 26999
OKEAN-O                 
1 25860U 99039A   19077.04602684  .00000029  00000-0  11788-4 0  9995
2 25860  98.2277  82.6067 0000817 104.2275 255.9025 14.76594576 58100
SL-16 R/B               
1 25861U 99039B   19076.91836366  .00000027  00000-0  11234-4 0  9991
2 25861  98.1830  65.6978 0015546 182.6824 233.3986 14.78520678 60015
TERRA                   
1 25994U 99068A   19077.17493097  .00000155  00000-0  44458-4 0  9995
2 25994  98.2100 153.0563 0001245  81.4968 278.6384 14.57109538 23727
ENVISAT                 
1 27386U 02009A   19077.56114476  .00000002  00000-0  14098-4 0  9993
2 27386  98.1582 103.2583 0001372  98.7792  74.7926 14.37943569892957
IDEFIX & ARIANE 42P R/B 
1 27422U 02021B   19076.89878789 -.00000022  00000-0  74053-5 0  9998
2 27422  98.2904  53.6118 0012937 139.7499 220.4644 14.29268612879804
AQUA                    
1 27424U 02022A   19076.92356368  .00000037  00000-0  18226-4 0  9993
2 27424  98.2100  19.1771 0001765   3.2094  16.7512 14.57101332897243
CZ-4B R/B               
1 27432U 02024C   19076.96871473 -.00000018  00000-0  14430-4 0  9990
2 27432  99.0644  66.9484 0050986  28.2766  28.4526 14.14076657868996
MIDORI II (ADEOS-II)    
1 27597U 02056A   19076.87643039  .00000033  00000-0  30692-4 0  9996
2 27597  98.4615  32.5607 0000290 126.6278 233.4930 14.27388863846531
H-2A R/B                
1 27601U 02056E   19076.77265361  .00000042  00000-0  30126-4 0  9991
2 27601  98.2886 129.4947 0071899 198.6707 270.3545 14.31883088849198
